SAUDISAT 1C (SO-50)     
1 27607U 02058C   26064.43584885  .00002486  00000+0  31026-3 0  9994
2 27607  64.5518  89.9288 0075171 281.4760  77.7911 14.82762878249073
SAUDISAT 2              
1 28371U 04025F   26064.58048637  .00000524  00000+0  12825-3 0  9992
2 28371  98.5496  61.8993 0023549 254.3683 105.4915 14.56612328150665
SAUDISAT 3              
1 31118U 07012B   26064.62102615  .00000565  00000+0  99427-4 0  9995
2 31118  98.1344  15.0276 0014284 191.8577 168.2295 14.71349414 12513
PISAT                   
1 41784U 16059B   26064.66957358  .00001584  00000+0  27801-3 0  9990
2 41784  97.8189  69.5857 0029219 173.4346 186.7249 14.68762310504542
FLYING LAPTOP           
1 42831U 17042G   26064.77686869  .00004460  00000+0  35730-3 0  9991
2 42831  97.4261 224.6256 0018793 108.1757 252.1516 15.00486943470949
SALSAT                  
1 46495U 20068K   26064.54776748  .00011945  00000+0  43846-3 0  9997
2 46495  97.8852  61.4374 0008579 314.2144  45.8389 15.28084035299522
